[{"OBJECT_NAME":"STARLINK-2503","OBJECT_ID":"2021-027BM","EPOCH":"2026-03-10T00:00:02.999808","MEAN_MOTION":15.12045111,"ECCENTRICITY":0.00018339,"INCLINATION":53.0753,"RA_OF_ASC_NODE":150.1568,"ARG_OF_PERICENTER":101.727,"MEAN_ANOMALY":130.0944,"EPHEMERIS_TYPE":0,"CLASSIFICATION_TYPE":"U","NORAD_CAT_ID":48151,"ELEMENT_SET_NO":999,"REV_AT_EPOCH":569,"BSTAR":0.0047324617,"MEAN_MOTION_DOT":0.00082958,"MEAN_MOTION_DDOT":0},{"OBJECT_NAME":"USA 3","OBJECT_ID":"1984-065C","EPOCH":"2026-03-09T16:01:22.012032","MEAN_MOTION":15.13173444,"ECCENTRICITY":0.000348,"INCLINATION":95.8957,"RA_OF_ASC_NODE":320.3284,"ARG_OF_PERICENTER":357.3815,"MEAN_ANOMALY":2.7401,"EPHEMERIS_TYPE":0,"CLASSIFICATION_TYPE":"U","NORAD_CAT_ID":15071,"ELEMENT_SET_NO":999,"REV_AT_EPOCH":10006,"BSTAR":0.0003647613,"MEAN_MOTION_DOT":6.429e-5,"MEAN_MOTION_DDOT":0}]
